GLOBALSTAR M040         
1 25622U 99004B   25193.43228699 -.00000064  00000+0  22463-3 0  9992
2 25622  51.9937 340.7625 0001678  96.8369 296.6910 12.62012656218446
GLOBALSTAR M036         
1 25623U 99004C   25193.42128021 -.00000098  00000+0 -22839-3 0  9995
2 25623  51.9937 173.8093 0011045  98.7358  66.2240 11.86608332181970
GLOBALSTAR M038         
1 25624U 99004D   25193.46883374 -.00000087  00000+0  65777-4 0  9995
2 25624  51.9994 358.7637 0002716 103.0263 274.0540 12.32529041205499
GLOBALSTAR M022         
1 25649U 99012A   25193.44610956 -.00000096  00000+0 -11269-3 0  9990
2 25649  52.0013 222.2376 0002722 223.2192 283.2286 12.02501628179417
GLOBALSTAR M046         
1 25651U 99012C   25193.41009083 -.00000176  00000+0 -96598-3 0  9990
2 25651  52.0025 171.5469 0002282 307.9912 216.5823 12.09410296186717
GLOBALSTAR M037         
1 25652U 99012D   25193.53645407 -.00000119  00000+0 -86879-4 0  9999
2 25652  52.0006 106.8628 0001476 253.9201 277.4100 12.62447793214470
